{
  "links" : {
    "next" : "https://api.nasa.gov/neo/rest/v1/feed?start_date=2015-04-23&end_date=2015-04-23&detailed=true&api_key=t0TVs3DtDT2H8Oy2Zy8m2eVrNsAVKAexjcZXUckd",
    "prev" : "https://api.nasa.gov/neo/rest/v1/feed?start_date=2015-04-21&end_date=2015-04-21&detailed=true&api_key=t0TVs3DtDT2H8Oy2Zy8m2eVrNsAVKAexjcZXUckd",
    "self" : "https://api.nasa.gov/neo/rest/v1/feed?start_date=2015-04-22&end_date=2015-04-22&detailed=true&api_key=t0TVs3DtDT2H8Oy2Zy8m2eVrNsAVKAexjcZXUckd"
  },
  "element_count" : 9,
  "near_earth_objects" : {
    "2015-04-22" : [ {
      "links" : {
        "self" : "https://api.nasa.gov/neo/rest/v1/neo/3002856?api_key=t0TVs3DtDT2H8Oy2Zy8m2eVrNsAVKAexjcZXUckd"
      },
      "neo_reference_id" : "3002856",
      "name" : "(1991 GO)",
      "nasa_jpl_url" : "http://ssd.jpl.nasa.gov/sbdb.cgi?sstr=3002856",
      "absolute_magnitude_h" : 20.0,
      "estimated_diameter" : {
        "kilometers" : {
          "estimated_diameter_min" : 0.2658,
          "estimated_diameter_max" : 0.5943468684
        },
        "meters" : {
          "estimated_diameter_min" : 265.8,
          "estimated_diameter_max" : 594.3468684194
        },
        "miles" : {
          "estimated_diameter_min" : 0.1651604118,
          "estimated_diameter_max" : 0.369309908
        },
        "feet" : {
          "estimated_diameter_min" : 872.047272,
          "estimated_diameter_max" : 1949.9569797852
        }
      },
      "is_potentially_hazardous_asteroid" : true,
      "close_approach_data" : [ {
        "close_approach_date" : "2015-04-22",
        "epoch_date_close_approach" : 1429686000000,
        "relative_velocity" : {
          "kilometers_per_second" : "27.6845869484",
          "kilometers_per_hour" : "99664.5130142364",
          "miles_per_hour" : "61927.6525448737"
        },
        "miss_distance" : {
          "astronomical" : "0.3134333243",
          "lunar" : "121.9255599976",
          "kilometers" : "46888956",
          "miles" : "29135448"
        },
        "orbiting_body" : "Earth"
      } ],
      "orbital_data" : {
        "orbit_id" : "25",
        "orbit_determination_date" : "2017-04-06 09:18:25",
        "orbit_uncertainty" : "0",
        "minimum_orbit_intersection" : ".0254032",
        "jupiter_tisserand_invariant" : "3.609",
        "epoch_osculation" : "2458000.5",
        "eccentricity" : ".6541250187167202",
        "semi_major_axis" : "1.92611661680593",
        "inclination" : "9.555632639332142",
        "ascending_node_longitude" : "24.14926091422981",
        "orbital_period" : "976.3876865935516",
        "perihelion_distance" : ".6661955487871652",
        "perihelion_argument" : "89.58499675734092",
        "aphelion_distance" : "3.186037684824695",
        "perihelion_time" : "2458065.428369248125",
        "mean_anomaly" : "336.0605205798184",
        "mean_motion" : ".3687060016661803",
        "equinox" : "J2000"
      }
    }, {
      "links" : {
        "self" : "https://api.nasa.gov/neo/rest/v1/neo/3092237?api_key=t0TVs3DtDT2H8Oy2Zy8m2eVrNsAVKAexjcZXUckd"
      },
      "neo_reference_id" : "3092237",
      "name" : "(1999 UQ)",
      "nasa_jpl_url" : "http://ssd.jpl.nasa.gov/sbdb.cgi?sstr=3092237",
      "absolute_magnitude_h" : 21.8,
      "estimated_diameter" : {
        "kilometers" : {
          "estimated_diameter_min" : 0.1160259082,
          "estimated_diameter_max" : 0.2594418179
        },
        "meters" : {
          "estimated_diameter_min" : 116.0259082094,
          "estimated_diameter_max" : 259.4418179074
        },
        "miles" : {
          "estimated_diameter_min" : 0.0720951346,
          "estimated_diameter_max" : 0.1612096218
        },
        "feet" : {
          "estimated_diameter_min" : 380.6624406898,
          "estimated_diameter_max" : 851.1870938635
        }
      },
      "is_potentially_hazardous_asteroid" : false,
      "close_approach_data" : [ {
        "close_approach_date" : "2015-04-22",
        "epoch_date_close_approach" : 1429686000000,
        "relative_velocity" : {
          "kilometers_per_second" : "13.8286945272",
          "kilometers_per_hour" : "49783.3002977656",
          "miles_per_hour" : "30933.4067877977"
        },
        "miss_distance" : {
          "astronomical" : "0.2081156555",
          "lunar" : "80.9569854736",
          "kilometers" : "31133658",
          "miles" : "19345558"
        },
        "orbiting_body" : "Earth"
      } ],
      "orbital_data" : {
        "orbit_id" : "25",
        "orbit_determination_date" : "2017-04-06 09:17:16",
        "orbit_uncertainty" : "0",
        "minimum_orbit_intersection" : ".0732779",
        "jupiter_tisserand_invariant" : "5.587",
        "epoch_osculation" : "2454727.5",
        "eccentricity" : ".01604580508682486",
        "semi_major_axis" : "1.094269847743193",
        "inclination" : "24.81286050808693",
        "ascending_node_longitude" : "211.3604962893569",
        "orbital_period" : "418.1047251374934",
        "perihelion_distance" : "1.076711407053916",
        "perihelion_argument" : "7.18133979297567",
        "aphelion_distance" : "1.11182828843247",
        "perihelion_time" : "2454621.987226736844",
        "mean_anomaly" : "90.84948361261634",
        "mean_motion" : ".8610282983087892",
        "equinox" : "J2000"
      }
    }, {
      "links" : {
        "self" : "https://api.nasa.gov/neo/rest/v1/neo/3547678?api_key=t0TVs3DtDT2H8Oy2Zy8m2eVrNsAVKAexjcZXUckd"
      },
      "neo_reference_id" : "3547678",
      "name" : "(2010 SA17)",
      "nasa_jpl_url" : "http://ssd.jpl.nasa.gov/sbdb.cgi?sstr=3547678",
      "absolute_magnitude_h" : 19.4,
      "estimated_diameter" : {
        "kilometers" : {
          "estimated_diameter_min" : 0.3503926411,
          "estimated_diameter_max" : 0.7835017643
        },
        "meters" : {
          "estimated_diameter_min" : 350.3926411083,
          "estimated_diameter_max" : 783.5017643338
        },
        "miles" : {
          "estimated_diameter_min" : 0.2177238258,
          "estimated_diameter_max" : 0.4868452748
        },
        "feet" : {
          "estimated_diameter_min" : 1149.5821926537,
          "estimated_diameter_max" : 2570.543928497
        }
      },
      "is_potentially_hazardous_asteroid" : false,
      "close_approach_data" : [ {
        "close_approach_date" : "2015-04-22",
        "epoch_date_close_approach" : 1429686000000,
        "relative_velocity" : {
          "kilometers_per_second" : "24.7159686884",
          "kilometers_per_hour" : "88977.4872781208",
          "miles_per_hour" : "55287.1503590079"
        },
        "miss_distance" : {
          "astronomical" : "0.4436288157",
          "lunar" : "172.5716094971",
          "kilometers" : "66365928",
          "miles" : "41237876"
        },
        "orbiting_body" : "Earth"
      } ],
      "orbital_data" : {
        "orbit_id" : "19",
        "orbit_determination_date" : "2017-04-06 08:56:29",
        "orbit_uncertainty" : "1",
        "minimum_orbit_intersection" : ".201018",
        "jupiter_tisserand_invariant" : "3.851",
        "epoch_osculation" : "2458000.5",
        "eccentricity" : ".5465038514236423",
        "semi_major_axis" : "1.779260790116592",
        "inclination" : "18.99683055200257",
        "ascending_node_longitude" : "281.0109628412975",
        "orbital_period" : "866.8777162422439",
        "perihelion_distance" : ".8068879156308013",
        "perihelion_argument" : "7.925480352588258",
        "aphelion_distance" : "2.751633664602382",
        "perihelion_time" : "2458039.540634757764",
        "mean_anomaly" : "343.7870690992968",
        "mean_motion" : ".4152834860729078",
        "equinox" : "J2000"
      }
    } ]
  }
}